OBJECT_NAME,OBJECT_ID,EPOCH,MEAN_MOTION,ECCENTRICITY,INCLINATION,RA_OF_ASC_NODE,ARG_OF_PERICENTER,MEAN_ANOMALY,EPHEMERIS_TYPE,CLASSIFICATION_TYPE,NORAD_CAT_ID,ELEMENT_SET_NO,REV_AT_EPOCH,BSTAR,MEAN_MOTION_DOT,MEAN_MOTION_DDOT
ONEWEB-0721,2023-068R,2026-06-20T03:59:24.791424,13.22469836,.00018924,86.6765,84.5656,77.8720,282.2625,0,U,56725,999,15833,.216096E-3,.105E-5,0
ONEWEB-0015,2024-188A,2026-06-20T06:50:26.683584,13.11414028,.00021049,87.8881,20.4763,72.5583,287.5775,0,U,61594,999,8486,-.38367421E-3,-.123E-5,0
ONEWEB-0687,2024-188B,2026-06-19T23:08:51.523008,13.17648647,.00023533,87.9126,5.3238,85.7118,274.4282,0,U,61595,999,8626,.58525219E-4,.36E-6,0
ONEWEB-0688,2024-188C,2026-06-19T22:00:49.297536,13.17647812,.000257,87.9128,5.3330,62.2046,297.9346,0,U,61596,999,8625,-.36269429E-3,-.128E-5,0
ONEWEB-0689,2024-188D,2026-06-20T00:19:47.731296,13.11418708,.0002098,87.8899,20.4888,90.8364,269.3005,0,U,61597,999,8482,-.67667961E-3,-.227E-5,0
ONEWEB-0690,2024-188E,2026-06-20T00:34:28.337376,13.11418066,.00012209,87.8892,20.4983,78.2636,281.8629,0,U,61598,999,8500,.10564608E-2,.387E-5,0
ONEWEB-0691,2024-188F,2026-06-20T00:27:08.898336,13.11419307,.00021125,87.8904,20.4082,78.3954,281.7411,0,U,61599,999,8485,.73071093E-3,.272E-5,0
ONEWEB-0692,2024-188G,2026-06-19T23:06:34.731936,13.11415297,.00019935,87.8883,20.5321,109.7253,250.4091,0,U,61600,999,8483,.1428263E-2,.519E-5,0
ONEWEB-0693,2024-188H,2026-06-19T22:17:49.619328,13.17648731,.00012075,87.9122,5.3506,70.2374,289.8888,0,U,61601,999,8624,.26958366E-4,.23E-6,0
ONEWEB-0695,2024-188J,2026-06-20T00:22:15.671424,13.11419487,.00021622,87.8879,20.5134,98.9166,261.2207,0,U,61602,999,8483,.13237997E-3,.6E-6,0
ONEWEB-0697,2024-188K,2026-06-20T06:38:14.260416,13.11424043,.00016152,87.8891,20.4522,123.3523,236.7760,0,U,61603,999,8485,-.39732453E-3,-.128E-5,0
ONEWEB-0698,2024-188L,2026-06-20T00:36:54.787968,13.11417321,.00010918,87.8883,20.5158,124.6164,235.5067,0,U,61604,999,8484,.14202516E-2,.516E-5,0
ONEWEB-0699,2024-188M,2026-06-20T00:58:29.656128,13.10424947,.00017113,87.8829,35.6983,105.5398,254.5918,0,U,61605,999,8368,-.10297506E-2,-.347E-5,0
ONEWEB-0700,2024-188N,2026-06-20T01:00:54.961056,13.10413715,.00019661,87.8849,35.6070,103.3062,256.8284,0,U,61606,999,8367,.17602056E-2,.628E-5,0
ONEWEB-0701,2024-188P,2026-06-19T14:25:18.339744,13.10345022,.00017098,87.8837,35.7849,110.9427,249.1884,0,U,61607,999,8362,.73618821E-3,.27E-5,0
ONEWEB-0702,2024-188Q,2026-06-19T14:43:36.280704,13.11417196,.00022106,87.8902,20.5041,114.0455,246.0904,0,U,61608,999,8480,-.20642278E-2,-.719E-5,0
ONEWEB-0704,2024-188R,2026-06-20T01:08:09.051072,13.10421529,.00017131,87.8838,35.6857,106.8634,253.2681,0,U,61609,999,8366,-.1401856E-1,-.4882E-4,0
ONEWEB-0705,2024-188S,2026-06-19T14:15:38.970720,13.10376427,.00027266,87.8843,35.7813,95.3646,264.7793,0,U,61610,999,7577,-.12962276E-2,-.44E-5,0
ONEWEB-0706,2024-188T,2026-06-19T15:43:54.681600,13.10437834,.00021109,87.8837,35.7737,99.3922,260.7444,0,U,61611,999,8370,-.22195643E-2,-.763E-5,0
ONEWEB-0707,2024-188U,2026-06-20T01:03:20.178720,13.10407845,.0002145,87.8840,35.6911,100.5166,259.6204,0,U,61612,999,8369,.78389262E-3,.286E-5,0
ONEWEB-0708,2024-188V,2026-06-19T21:49:59.141856,13.10329595,.00023754,87.8832,35.7356,81.2827,278.8570,0,U,61613,999,8365,.10743915E-2,.387E-5,0
